IRIDIUM 7               
1 24793U 97020B   24210.22178924  .00000637  00000+0  21554-3 0  9992
2 24793  86.3982 312.6479 0002445  96.3669 263.7806 14.35313197425638
IRIDIUM 5               
1 24795U 97020D   24210.16595524  .00003277  00000+0  30759-3 0  9996
2 24795  86.3901 232.3544 0119300 215.6598 143.6618 14.88296451437190
IRIDIUM 4               
1 24796U 97020E   24210.20217446  .00000664  00000+0  22091-3 0  9993
2 24796  86.3974 309.7472 0002218  98.2576 261.8873 14.36241391425986
IRIDIUM 914             
1 24836U 97030A   24210.53970542  .00000789  00000+0  24371-3 0  9999
2 24836  86.3965 319.1670 0002161 142.3688 217.7663 14.40113095422638
IRIDIUM 16              
1 24841U 97030F   24210.08915351  .00000821  00000+0  26517-3 0  9993
2 24841  86.4068 341.4362 0003988  71.3908 288.7723 14.37999741420672
IRIDIUM 911             
1 24842U 97030G   24209.90997662  .00001110  00000+0  30157-3 0  9995
2 24842  86.4492 340.6017 0016432  98.1761 262.1307 14.46669470428163
IRIDIUM 17              
1 24870U 97034B   24210.15372463  .00000782  00000+0  25679-3 0  9992
2 24870  86.3972  10.9814 0002508  51.1999 308.9422 14.37088516417036
IRIDIUM 920             
1 24871U 97034C   24210.47349767  .00000796  00000+0  24244-3 0  9991
2 24871  86.4005 350.8371 0013582  73.5635 286.7056 14.40808873420218
